[
    {
        "Altitude(m)": 560905.560859003,
        "Argument of Periapsis(deg)": 0.0,
        "Eccentricity": 0.0,
        "Inclination(deg)": 53.0,
        "Latitude(deg)": -25.776339923937975,
        "Longitude(deg)": -128.75197627006153,
        "Mean Anomaly(deg)": 212.7273,
        "RAAN(deg)": 130.0,
        "Satellite Name": "Starlink Shell 1 585",
        "Satellite Number": 585,
        "Semi-Major Axis(m)": 6931778.249405717,
        "Time(s)": 0
    },
    {
        "Altitude(m)": 561076.8401838541,
        "Argument of Periapsis(deg)": 0.00034857847951123687,
        "Eccentricity": 0.0,
        "Inclination(deg)": 53.0,
        "Latitude(deg)": -26.243780938579846,
        "Longitude(deg)": -128.32826718625589,
        "Mean Anomaly(deg)": 213.3541312035568,
        "RAAN(deg)": 129.99948122992254,
        "Satellite Name": "Starlink Shell 1 585",
        "Satellite Number": 585,
        "Semi-Major Axis(m)": 6931778.249405717,
        "Time(s)": 10
    },
    {
        "Altitude(m)": 561248.8082508383,
        "Argument of Periapsis(deg)": 0.0006971569590224737,
        "Eccentricity": 0.0,
        "Inclination(deg)": 53.0,
        "Latitude(deg)": -26.709660859130484,
        "Longitude(deg)": -127.9008465683926,
        "Mean Anomaly(deg)": 213.98096240711342,
        "RAAN(deg)": 129.99896245984505,
        "Satellite Name": "Starlink Shell 1 585",
        "Satellite Number": 585,
        "Semi-Major Axis(m)": 6931778.249405717,
        "Time(s)": 20
    },
    {
        "Altitude(m)": 561421.4020159129,
        "Argument of Periapsis(deg)": 0.0010457354385337105,
        "Eccentricity": 0.0,
        "Inclination(deg)": 53.0,
        "Latitude(deg)": -27.173936092836055,
        "Longitude(deg)": -127.46962020773877,
        "Mean Anomaly(deg)": 214.60779361067017,
        "RAAN(deg)": 129.99844368976758,
        "Satellite Name": "Starlink Shell 1 585",
        "Satellite Number": 585,
        "Semi-Major Axis(m)": 6931778.249405717,
        "Time(s)": 30
    },
    {
        "Altitude(m)": 561594.5580080295,
        "Argument of Periapsis(deg)": 0.0013943139180449475,
        "Eccentricity": 0.0,
        "Inclination(deg)": 53.0,
        "Latitude(deg)": -27.636562111071672,
        "Longitude(deg)": -127.0344921020269,
        "Mean Anomaly(deg)": 215.2346248142268,
        "RAAN(deg)": 129.99792491969012,
        "Satellite Name": "Starlink Shell 1 585",
        "Satellite Number": 585,
        "Semi-Major Axis(m)": 6931778.249405717,
        "Time(s)": 40
    },
    {
        "Altitude(m)": 561768.2123576277,
        "Argument of Periapsis(deg)": 0.0017428923975561844,
        "Eccentricity": 0.0,
        "Inclination(deg)": 53.0,
        "Latitude(deg)": -28.09749342094389,
        "Longitude(deg)": -126.5953654578565,
        "Mean Anomaly(deg)": 215.8614560177836,
        "RAAN(deg)": 129.99740614961263,
        "Satellite Name": "Starlink Shell 1 585",
        "Satellite Number": 585,
        "Semi-Major Axis(m)": 6931778.249405717,
        "Time(s)": 50
    },
    {
        "Altitude(m)": 561942.3008252737,
        "Argument of Periapsis(deg)": 0.002091470877067421,
        "Eccentricity": 0.0,
        "Inclination(deg)": 53.0,
        "Latitude(deg)": -28.556683536411573,
        "Longitude(deg)": -126.15214218266073,
        "Mean Anomaly(deg)": 216.48828722134033,
        "RAAN(deg)": 129.99688737953517,
        "Satellite Name": "Starlink Shell 1 585",
        "Satellite Number": 585,
        "Semi-Major Axis(m)": 6931778.249405717,
        "Time(s)": 60
    },
    {
        "Altitude(m)": 562116.7588304732,
        "Argument of Periapsis(deg)": 0.0024400493565786582,
        "Eccentricity": 0.0,
        "Inclination(deg)": 53.0,
        "Latitude(deg)": -29.01408494893601,
        "Longitude(deg)": -125.7047223793326,
        "Mean Anomaly(deg)": 217.115118424897,
        "RAAN(deg)": 129.9963686094577,
        "Satellite Name": "Starlink Shell 1 585",
        "Satellite Number": 585,
        "Semi-Major Axis(m)": 6931778.249405717,
        "Time(s)": 70
    },
    {
        "Altitude(m)": 562291.5214806651,
        "Argument of Periapsis(deg)": 0.002788627836089895,
        "Eccentricity": 0.0,
        "Inclination(deg)": 53.0,
        "Latitude(deg)": -29.469649097676427,
        "Longitude(deg)": -125.25300535661837,
        "Mean Anomaly(deg)": 217.7419496284537,
        "RAAN(deg)": 129.9958498393802,
        "Satellite Name": "Starlink Shell 1 585",
        "Satellite Number": 585,
        "Semi-Major Axis(m)": 6931778.249405717,
        "Time(s)": 80
    },
    {
        "Altitude(m)": 562466.5236003107,
        "Argument of Periapsis(deg)": 0.0031372063156011316,
        "Eccentricity": 0.0,
        "Inclination(deg)": 53.0,
        "Latitude(deg)": -29.923326339256512,
        "Longitude(deg)": -124.7968891297796,
        "Mean Anomaly(deg)": 218.3687808320104,
        "RAAN(deg)": 129.99533106930275,
        "Satellite Name": "Starlink Shell 1 585",
        "Satellite Number": 585,
        "Semi-Major Axis(m)": 6931778.249405717,
        "Time(s)": 90
    },
    {
        "Altitude(m)": 562641.6997601294,
        "Argument of Periapsis(deg)": 0.0034857847951123688,
        "Eccentricity": 0.0,
        "Inclination(deg)": 53.0,
        "Latitude(deg)": -30.37506591712344,
        "Longitude(deg)": -124.33626992466274,
        "Mean Anomaly(deg)": 218.9956120355672,
        "RAAN(deg)": 129.9948122992253,
        "Satellite Name": "Starlink Shell 1 585",
        "Satellite Number": 585,
        "Semi-Major Axis(m)": 6931778.249405717,
        "Time(s)": 100
    },
    {
        "Altitude(m)": 562816.9843064486,
        "Argument of Periapsis(deg)": 0.003834363274623606,
        "Eccentricity": 0.0,
        "Inclination(deg)": 53.0,
        "Latitude(deg)": -30.824815930528302,
        "Longitude(deg)": -123.87104319833327,
        "Mean Anomaly(deg)": 219.6224432391239,
        "RAAN(deg)": 129.9942935291478,
        "Satellite Name": "Starlink Shell 1 585",
        "Satellite Number": 585,
        "Semi-Major Axis(m)": 6931778.249405717,
        "Time(s)": 110
    },
    {
        "Altitude(m)": 562992.3113906228,
        "Argument of Periapsis(deg)": 0.004182941754134842,
        "Eccentricity": 0.0,
        "Inclination(deg)": 53.0,
        "Latitude(deg)": -31.272523303163968,
        "Longitude(deg)": -123.40110315082339,
        "Mean Anomaly(deg)": 220.24927444268064,
        "RAAN(deg)": 129.99377475907033,
        "Satellite Name": "Starlink Shell 1 585",
        "Satellite Number": 585,
        "Semi-Major Axis(m)": 6931778.249405717,
        "Time(s)": 120
    },
    {
        "Altitude(m)": 563167.6149985582,
        "Argument of Periapsis(deg)": 0.004531520233646079,
        "Eccentricity": 0.0,
        "Inclination(deg)": 53.0,
        "Latitude(deg)": -31.71813375149596,
        "Longitude(deg)": -122.926342241187,
        "Mean Anomaly(deg)": 220.87610564623728,
        "RAAN(deg)": 129.99325598899287,
        "Satellite Name": "Starlink Shell 1 585",
        "Satellite Number": 585,
        "Semi-Major Axis(m)": 6931778.249405717,
        "Time(s)": 130
    },
    {
        "Altitude(m)": 563342.8289803036,
        "Argument of Periapsis(deg)": 0.0048800987131573164,
        "Eccentricity": 0.0,
        "Inclination(deg)": 53.0,
        "Latitude(deg)": -32.16159175283029,
        "Longitude(deg)": -122.44665222106842,
        "Mean Anomaly(deg)": 221.50293684979405,
        "RAAN(deg)": 129.99273721891538,
        "Satellite Name": "Starlink Shell 1 585",
        "Satellite Number": 585,
        "Semi-Major Axis(m)": 6931778.249405717,
        "Time(s)": 140
    },
    {
        "Altitude(m)": 563517.8870796715,
        "Argument of Periapsis(deg)": 0.005228677192668553,
        "Eccentricity": 0.0,
        "Inclination(deg)": 53.0,
        "Latitude(deg)": -32.60284051316803,
        "Longitude(deg)": -121.96192366039219,
        "Mean Anomaly(deg)": 222.12976805335074,
        "RAAN(deg)": 129.99221844883792,
        "Satellite Name": "Starlink Shell 1 585",
        "Satellite Number": 585,
        "Semi-Major Axis(m)": 6931778.249405717,
        "Time(s)": 150
    },
    {
        "Altitude(m)": 563692.7229639108,
        "Argument of Periapsis(deg)": 0.00557725567217979,
        "Eccentricity": 0.0,
        "Inclination(deg)": 53.0,
        "Latitude(deg)": -33.04182193490201,
        "Longitude(deg)": -121.47204547842028,
        "Mean Anomaly(deg)": 222.75659925690746,
        "RAAN(deg)": 129.99169967876045,
        "Satellite Name": "Starlink Shell 1 585",
        "Satellite Number": 585,
        "Semi-Major Axis(m)": 6931778.249405717,
        "Time(s)": 160
    },
    {
        "Altitude(m)": 563867.270253412,
        "Argument of Periapsis(deg)": 0.0059258341516910265,
        "Eccentricity": 0.0,
        "Inclination(deg)": 53.0,
        "Latitude(deg)": -33.478476584414345,
        "Longitude(deg)": -120.97690599344419,
        "Mean Anomaly(deg)": 223.38343046046415,
        "RAAN(deg)": 129.99118090868296,
        "Satellite Name": "Starlink Shell 1 585",
        "Satellite Number": 585,
        "Semi-Major Axis(m)": 6931778.249405717,
        "Time(s)": 170
    },
    {
        "Altitude(m)": 564041.4625514083,
        "Argument of Periapsis(deg)": 0.006274412631202263,
        "Eccentricity": 0.0,
        "Inclination(deg)": 53.0,
        "Latitude(deg)": -33.91274365964676,
        "Longitude(deg)": -120.47639246577513,
        "Mean Anomaly(deg)": 224.01026166402087,
        "RAAN(deg)": 129.9906621386055,
        "Satellite Name": "Starlink Shell 1 585",
        "Satellite Number": 585,
        "Semi-Major Axis(m)": 6931778.249405717,
        "Time(s)": 180
    }
]